#aV2014  8 14  0  0  0.00000000     288 DD+AD WGS84 FIT  NGA
## 1805 345600.00000000   300.00000000 56883 0.0000000000000
+   32     1  2  3  4  5  6  7  8  9 10 11 12 13 14 15 16 17
+         18 19 20 21 22 23 24 25 26 27 28 29 30 31 32  0  0
+          0  0  0  0  0  0  0  0  0  0  0  0  0  0  0  0  0
+          0  0  0  0  0  0  0  0  0  0  0  0  0  0  0  0  0
+          0  0  0  0  0  0  0  0  0  0  0  0  0  0  0  0  0
++         2  2  2  2  2  2  2  2  2  2  2  2  2  2  2  2  2
++         2  2  2  2  2  2  2  2  2  2  2  2  2  2  2  0  0
++         0  0  0  0  0  0  0  0  0  0  0  0  0  0  0  0  0
++         0  0  0  0  0  0  0  0  0  0  0  0  0  0  0  0  0
++         0  0  0  0  0  0  0  0  0  0  0  0  0  0  0  0  0
%c cc cc ccc ccc cccc cccc cccc cccc ccccc ccccc ccccc ccccc
%c cc cc ccc ccc cccc cccc cccc cccc ccccc ccccc ccccc ccccc
%f  0.0000000  0.000000000  0.00000000000  0.000000000000000
%f  0.0000000  0.000000000  0.00000000000  0.000000000000000
%i    0    0    0    0      0      0      0      0         0
%i    0    0    0    0      0      0      0      0         0
/*      NGA, ST. LOUIS,MO.                                  
/*   EPHEMERIS COMPUTED FROM  1 DAYS OF DATA                
/*   EPOCHA SMOOTHER                                       
/* CCCCCCCCCCCCCCCCCCCCCCCCCCCCCCCCCCCCCCCCCCCCCCCCCCCCCCCCC
*  2014  8 14 19 30  0.00000000
P  1  16535.752932   1847.568673  20695.711665     19.608408                    
V  1   9726.512966  24483.062200  -9788.665774      0.006639                    
P  2 -13884.649286 -22528.357094  -4065.516153    512.575450                    
V  2    409.700716  -6248.700936  30418.472105      0.021942                    
P  3  23887.752470   6516.432063 -10350.805239    403.866881                    
V  3 -12191.047164   3392.242591 -27381.509116      0.050079                    
P  4   8441.084924 -15649.212777  19316.499964     -0.025372                    
V  4  11959.888658  22462.569835  13019.054989     -0.001052                    
P  5  -9818.809729 -12536.300771 -21274.659241   -349.313469                    
V  5  16365.960806 -21484.864077   5284.195372      0.034649                    
P  6  -5723.971746 -24975.980384   7001.893600     -4.210477                    
V  6   6025.872399   7069.124951  30076.201491     -0.010777                    
P  7  10334.424137 -12374.414247 -20952.625823    380.140122                    
V  7  11013.618645  24492.194602  -9342.044650      0.042725                    
P  8   8441.296475 -15570.815769 -19360.556707     15.176462                    
V  8   8304.785770  23766.263340 -15957.741986      0.000970                    
P  9 -26730.876682  -2048.255046   1146.842625     15.365362                    
V  9  -1141.367145  -2685.107663 -31528.907999      0.050832                    
P 10   4561.273189 -22401.046693 -13499.358005   -137.857058                    
V 10  12390.359902 -11692.118950  24634.873194     -0.015966                    
P 11  21401.594499   7135.884148  13653.274346   -513.342016                    
V 11   9577.109468  16055.552595 -22380.273545     -0.029669                    
P 12 -18671.182837   4085.940159  18267.584265    224.945219                    
V 12  13615.043978 -19038.200361  18304.568086      0.026034                    
P 13  22014.008791  -5004.538187 -14256.783117    -31.022851                    
V 13  17022.816689   5415.999295  24429.592225     -0.038892                    
P 14  -3766.443050  14687.987166  22033.705632    144.792882                    
V 14 -26904.795228  -5196.420693  -1298.574606     -0.036405                    
P 15 -26329.339726  -3789.262898  -2620.837136   -196.894479                    
V 15   3468.663955  -3089.525111 -30760.919167     -0.022142                    
P 16   8644.523344  12222.233751 -21959.784881   -201.430362                    
V 16 -18028.551746  21048.297250   4975.756377      0.023614                    
P 17   3670.506082 -14738.866079  22040.932015   -116.503820                    
V 17  26991.086166   4387.529887  -1802.262802     -0.027342                    
P 18 -16258.509956  20677.865712  -1575.276162    338.074705                    
V 18  -1939.586292  -4555.987423 -31075.827501      0.024951                    
P 19  24826.225997   8767.561052  -5173.042031   -473.502168                    
V 19  -6590.461202    857.656399 -30696.426469     -0.019600                    
P 20  19499.064953  -9281.801390  15231.697364    222.036254                    
V 20  -8296.937221  18197.193197  21513.183744      0.043472                    
P 21  -7025.569116  17196.171585 -18175.657073   -378.360086                    
V 21 -12167.258233 -21573.057796 -15607.747903     -0.021195                    
P 22  -7316.491848  23409.880730  10202.948864    258.871673                    
V 22 -10362.154047   8286.422165 -27186.885816      0.033218                    
P 23  26241.200024   -651.526077  -5237.687452    -44.501598                    
V 23   6368.506539   3478.495538  30323.164121     -0.029468                    
P 24 -17498.157079  -5997.288121  19077.286119    -33.507791                    
V 24  -8774.878355 -22642.866198 -15053.391251     -0.005562                    
P 25 -19246.316600  15482.522567   9502.200481     23.630400                    
V 25   5408.732695 -11156.923332  29022.283609     -0.006199                    
P 26 -19652.163707 -13181.215919 -12996.873969    -19.808334                    
V 26  15316.978416   1630.595316 -25873.025140     -0.129917                    
P 27  18104.579367  12417.874321 -15011.029670      6.072487                    
V 27 -19098.221109   -110.561809 -23082.260756      0.032005                    
P 28  12031.077013 -22448.398783   7893.055320    377.161417                    
V 28   7328.254647  -5870.970963 -30316.844040      0.026181                    
P 29 -21425.357559   6404.940149 -14268.539424    553.644084                    
V 29 -17613.491415  -4857.077924  24259.471863      0.025327                    
P 30   3736.391235 -21485.474592 -15133.008364    -48.398501                    
V 30   8336.096884  17459.458366 -22781.525859     -0.054832                    
P 31   6121.019831  25107.222671   5517.758772    332.707523                    
V 31  -4823.898104  -5451.761300  31305.882158     -0.003307                    
P 32  15139.782656   5652.759558  21035.046390   -362.876967                    
V 32 -16863.387812  20798.340966   7101.505153      0.084431                    
EOF
